start=new Date('2022-08-18T00:00:00.000Z').valueOf();
sats=[{"BSTAR":"0.00020469000000","OBJECT_NAME":"STARLINK-1981","REF_FRAME":"TEME","NORAD_CAT_ID":"47579","ECCENTRICITY":"0.00015240","INCLINATION":"53.0531","GP_ID":"210404743","MEAN_MOTION_DOT":"0.00002769","OBJECT_ID":"2021-009AH","RA_OF_ASC_NODE":"88.4053","RCS_SIZE":"LARGE","MEAN_ELEMENT_THEORY":"SGP4","DECAY_DATE":null,"ARG_OF_PERICENTER":"65.6477","PERIAPSIS":"546.156","PERIOD":"95.592","TLE_LINE1":"1 47579U 21009AH  22229.50045748  .00002769  00000-0  20469-3 0  9992","MEAN_ANOMALY":"294.4671","REV_AT_EPOCH":"8496","FILE":"3538809","SEMIMAJOR_AXIS":"6925.347","MEAN_MOTION":"15.06400619","MEAN_MOTION_DDOT":"0.0000000000000","LAUNCH_DATE":"2021-02-04","EPOCH":"2022-08-17T12:00:39.526272","TLE_LINE2":"2 47579  53.0531  88.4053 0001524  65.6477 294.4671 15.06400619 84968","CLASSIFICATION_TYPE":"U","ELEMENT_SET_NO":"999","CENTER_NAME":"EARTH","EPHEMERIS_TYPE":"0","COUNTRY_CODE":"US","SITE":"AFETR","APOAPSIS":"548.267","TIME_SYSTEM":"UTC","OBJECT_TYPE":"PAYLOAD"},{"TLE_LINE1":"1 47580U 21009AJ  22228.72548853  .00001298  00000-0  10604-3 0  9998","PERIOD":"95.592","PERIAPSIS":"546.167","ARG_OF_PERICENTER":"63.9317","MEAN_ANOMALY":"296.1829","FILE":"3538178","REV_AT_EPOCH":"8470","RA_OF_ASC_NODE":"101.8822","MEAN_ELEMENT_THEORY":"SGP4","RCS_SIZE":"LARGE","DECAY_DATE":null,"ECCENTRICITY":"0.00015300","INCLINATION":"53.0520","GP_ID":"210366541","MEAN_MOTION_DOT":"0.00001298","OBJECT_ID":"2021-009AJ","OBJECT_NAME":"STARLINK-1982","BSTAR":"0.00010604000000","REF_FRAME":"TEME","NORAD_CAT_ID":"47580","COUNTRY_CODE":"US","SITE":"AFETR","APOAPSIS":"548.287","TIME_SYSTEM":"UTC","OBJECT_TYPE":"PAYLOAD","EPOCH":"2022-08-16T17:24:42.208992","TLE_LINE2":"2 47580  53.0520 101.8822 0001530  63.9317 296.1829 15.06395598 84708","CLASSIFICATION_TYPE":"U","ELEMENT_SET_NO":"999","EPHEMERIS_TYPE":"0","CENTER_NAME":"EARTH","MEAN_MOTION_DDOT":"0.0000000000000","LAUNCH_DATE":"2021-02-04","SEMIMAJOR_AXIS":"6925.362","MEAN_MOTION":"15.06395598"},{"SITE":"AFETR","COUNTRY_CODE":"US","OBJECT_TYPE":"PAYLOAD","APOAPSIS":"548.146","TIME_SYSTEM":"UTC","CLASSIFICATION_TYPE":"U","ELEMENT_SET_NO":"999","TLE_LINE2":"2 47581  53.0546  78.9905 0001372  90.4588 269.6558 15.06405702 85087","EPOCH":"2022-08-17T08:50:54.162816","CENTER_NAME":"EARTH","EPHEMERIS_TYPE":"0","MEAN_MOTION_DDOT":"0.0000000000000","LAUNCH_DATE":"2021-02-04","SEMIMAJOR_AXIS":"6925.331","MEAN_MOTION":"15.06405702","MEAN_ANOMALY":"269.6558","TLE_LINE1":"1 47581U 21009AK  22229.36868244  .00002353  00000-0  17676-3 0  9998","PERIAPSIS":"546.246","PERIOD":"95.592","ARG_OF_PERICENTER":"90.4588","FILE":"3538809","REV_AT_EPOCH":"8508","MEAN_ELEMENT_THEORY":"SGP4","RCS_SIZE":"LARGE","RA_OF_ASC_NODE":"78.9905","DECAY_DATE":null,"ECCENTRICITY":"0.00013720","MEAN_MOTION_DOT":"0.00002353","OBJECT_ID":"2021-009AK","GP_ID":"210406245","INCLINATION":"53.0546","OBJECT_NAME":"STARLINK-1984","BSTAR":"0.00017676000000","NORAD_CAT_ID":"47581","REF_FRAME":"TEME"},{"APOAPSIS":"548.424","TIME_SYSTEM":"UTC","OBJECT_TYPE":"PAYLOAD","COUNTRY_CODE":"US","SITE":"AFETR","CENTER_NAME":"EARTH","EPHEMERIS_TYPE":"0","TLE_LINE2":"2 47582  53.0538 102.0391 0001773  72.0322 288.0860 15.06405785 85301","EPOCH":"2022-08-16T16:36:56.259648","CLASSIFICATION_TYPE":"U","ELEMENT_SET_NO":"999","LAUNCH_DATE":"2021-02-04","MEAN_MOTION_DDOT":"0.0000000000000","MEAN_MOTION":"15.06405785","SEMIMAJOR_AXIS":"6925.331","REV_AT_EPOCH":"8530","FILE":"3538598","PERIAPSIS":"545.968","PERIOD":"95.592","ARG_OF_PERICENTER":"72.0322","TLE_LINE1":"1 47582U 21009AL  22228.69231782  .00002607  00000-0  19383-3 0  9994","MEAN_ANOMALY":"288.0860","DECAY_DATE":null,"RA_OF_ASC_NODE":"102.0391","RCS_SIZE":"LARGE","MEAN_ELEMENT_THEORY":"SGP4","INCLINATION":"53.0538","GP_ID":"210379838","MEAN_MOTION_DOT":"0.00002607","OBJECT_ID":"2021-009AL","ECCENTRICITY":"0.00017730","REF_FRAME":"TEME","NORAD_CAT_ID":"47582","BSTAR":"0.00019383000000","OBJECT_NAME":"STARLINK-1986"},{"RA_OF_ASC_NODE":"102.1219","MEAN_ELEMENT_THEORY":"SGP4","RCS_SIZE":"LARGE","DECAY_DATE":null,"TLE_LINE1":"1 47583U 21009AM  22228.67020115 -.00000338  00000-0 -37713-5 0  9999","PERIAPSIS":"546.165","ARG_OF_PERICENTER":"78.0038","PERIOD":"95.592","MEAN_ANOMALY":"282.1123","FILE":"3538178","REV_AT_EPOCH":"8470","OBJECT_NAME":"STARLINK-1987","BSTAR":"-0.00000377130000","REF_FRAME":"TEME","NORAD_CAT_ID":"47583","ECCENTRICITY":"0.00015360","GP_ID":"210366291","INCLINATION":"53.0544","MEAN_MOTION_DOT":"-0.00000338","OBJECT_ID":"2021-009AM","EPOCH":"2022-08-16T16:05:05.379360","TLE_LINE2":"2 47583  53.0544 102.1219 0001536  78.0038 282.1123 15.06394978 84707","ELEMENT_SET_NO":"999","CLASSIFICATION_TYPE":"U","EPHEMERIS_TYPE":"0","CENTER_NAME":"EARTH","COUNTRY_CODE":"US","SITE":"AFETR","APOAPSIS":"548.293","TIME_SYSTEM":"UTC","OBJECT_TYPE":"PAYLOAD","SEMIMAJOR_AXIS":"6925.364","MEAN_MOTION":"15.06394978","MEAN_MOTION_DDOT":"0.0000000000000","LAUNCH_DATE":"2021-02-04"},{"MEAN_MOTION_DDOT":"0.0000000000000","LAUNCH_DATE":"2021-02-04","SEMIMAJOR_AXIS":"6925.378","MEAN_MOTION":"15.06390269","SITE":"AFETR","COUNTRY_CODE":"US","OBJECT_TYPE":"PAYLOAD","APOAPSIS":"548.532","TIME_SYSTEM":"UTC","CLASSIFICATION_TYPE":"U","ELEMENT_SET_NO":"999","TLE_LINE2":"2 47585  53.0547 102.0192 0001860  74.6927 285.4267 15.06390269 84704","EPOCH":"2022-08-16T16:42:14.650560","CENTER_NAME":"EARTH","EPHEMERIS_TYPE":"0","ECCENTRICITY":"0.00018600","MEAN_MOTION_DOT":"-0.00000331","OBJECT_ID":"2021-009AP","INCLINATION":"53.0547","GP_ID":"210366042","BSTAR":"-0.00000328740000","OBJECT_NAME":"STARLINK-1989","NORAD_CAT_ID":"47585","REF_FRAME":"TEME","MEAN_ANOMALY":"285.4267","ARG_OF_PERICENTER":"74.6927","PERIAPSIS":"545.955","PERIOD":"95.593","TLE_LINE1":"1 47585U 21009AP  22228.69600290 -.00000331  00000-0 -32874-5 0  9997","REV_AT_EPOCH":"8470","FILE":"3538178","RCS_SIZE":"LARGE","MEAN_ELEMENT_THEORY":"SGP4","RA_OF_ASC_NODE":"102.0192","DECAY_DATE":null},{"COUNTRY_CODE":"US","SITE":"AFETR","APOAPSIS":"548.326","TIME_SYSTEM":"UTC","OBJECT_TYPE":"PAYLOAD","EPOCH":"2022-08-17T03:27:07.572096","TLE_LINE2":"2 47586  53.0545 120.0028 0001642  71.6892 288.4276 15.06407899 84494","ELEMENT_SET_NO":"999","CLASSIFICATION_TYPE":"U","CENTER_NAME":"EARTH","EPHEMERIS_TYPE":"0","MEAN_MOTION_DDOT":"0.0000000000000","LAUNCH_DATE":"2021-02-04","SEMIMAJOR_AXIS":"6925.324","MEAN_MOTION":"15.06407899","PERIAPSIS":"546.052","ARG_OF_PERICENTER":"71.6892","PERIOD":"95.592","TLE_LINE1":"1 47586U 21009AQ  22229.14383764  .00000789  00000-0  71829-4 0  9990","MEAN_ANOMALY":"288.4276","REV_AT_EPOCH":"8449","FILE":"3538809","RA_OF_ASC_NODE":"120.0028","RCS_SIZE":"LARGE","MEAN_ELEMENT_THEORY":"SGP4","DECAY_DATE":null,"ECCENTRICITY":"0.00016420","INCLINATION":"53.0545","GP_ID":"210405746","OBJECT_ID":"2021-009AQ","MEAN_MOTION_DOT":"0.00000789","BSTAR":"0.00007182900000","OBJECT_NAME":"STARLINK-1990","REF_FRAME":"TEME","NORAD_CAT_ID":"47586"},{"MEAN_MOTION":"15.06392291","SEMIMAJOR_AXIS":"6925.372","LAUNCH_DATE":"2021-02-04","MEAN_MOTION_DDOT":"0.0000000000000","CENTER_NAME":"EARTH","EPHEMERIS_TYPE":"0","CLASSIFICATION_TYPE":"U","ELEMENT_SET_NO":"999","EPOCH":"2022-08-16T16:11:43.460448","TLE_LINE2":"2 47587  53.0539  92.1128 0001387  77.8050 282.3094 15.06392291 85444","OBJECT_TYPE":"PAYLOAD","TIME_SYSTEM":"UTC","APOAPSIS":"548.198","SITE":"AFETR","COUNTRY_CODE":"US","NORAD_CAT_ID":"47587","REF_FRAME":"TEME","OBJECT_NAME":"STARLINK-1991","BSTAR":"0.00003868900000","MEAN_MOTION_DOT":"0.00000295","OBJECT_ID":"2021-009AR","INCLINATION":"53.0539","GP_ID":"210383573","ECCENTRICITY":"0.00013870","DECAY_DATE":null,"MEAN_ELEMENT_THEORY":"SGP4","RCS_SIZE":"LARGE","RA_OF_ASC_NODE":"92.1128","FILE":"3538762","REV_AT_EPOCH":"8544","MEAN_ANOMALY":"282.3094","TLE_LINE1":"1 47587U 21009AR  22228.67480857  .00000295  00000-0  38689-4 0  9998","PERIAPSIS":"546.277","PERIOD":"95.593","ARG_OF_PERICENTER":"77.8050"},{"DECAY_DATE":null,"RCS_SIZE":"LARGE","MEAN_ELEMENT_THEORY":"SGP4","RA_OF_ASC_NODE":"98.5558","REV_AT_EPOCH":"8482","FILE":"3538809","MEAN_ANOMALY":"278.9335","PERIAPSIS":"546.189","ARG_OF_PERICENTER":"81.1820","PERIOD":"95.592","TLE_LINE1":"1 47588U 21009AS  22229.46266885  .00001688  00000-0  13218-3 0  9997","NORAD_CAT_ID":"47588","REF_FRAME":"TEME","BSTAR":"0.00013218000000","OBJECT_NAME":"STARLINK-1993","MEAN_MOTION_DOT":"0.00001688","OBJECT_ID":"2021-009AS","INCLINATION":"53.0540","GP_ID":"210404744","ECCENTRICITY":"0.00014720","EPHEMERIS_TYPE":"0","CENTER_NAME":"EARTH","CLASSIFICATION_TYPE":"U","ELEMENT_SET_NO":"999","TLE_LINE2":"2 47588  53.0540  98.5558 0001472  81.1820 278.9335 15.06401622 84821","EPOCH":"2022-08-17T11:06:14.588640","OBJECT_TYPE":"PAYLOAD","TIME_SYSTEM":"UTC","APOAPSIS":"548.228","SITE":"AFETR","COUNTRY_CODE":"US","MEAN_MOTION":"15.06401622","SEMIMAJOR_AXIS":"6925.344","LAUNCH_DATE":"2021-02-04","MEAN_MOTION_DDOT":"0.0000000000000"},{"MEAN_MOTION_DDOT":"0.0000000000000","LAUNCH_DATE":"2021-02-04","SEMIMAJOR_AXIS":"6925.318","MEAN_MOTION":"15.06409896","SITE":"AFETR","COUNTRY_CODE":"US","OBJECT_TYPE":"PAYLOAD","TIME_SYSTEM":"UTC","APOAPSIS":"548.258","ELEMENT_SET_NO":"999","CLASSIFICATION_TYPE":"U","EPOCH":"2022-08-17T00:24:00.535104","TLE_LINE2":"2 47589  53.0543 100.5736 0001552  83.7632 276.3534 15.06409896 84751","CENTER_NAME":"EARTH","EPHEMERIS_TYPE":"0","ECCENTRICITY":"0.00015520","MEAN_MOTION_DOT":"-0.00000063","OBJECT_ID":"2021-009AT","INCLINATION":"53.0543","GP_ID":"210405496","OBJECT_NAME":"STARLINK-1994","BSTAR":"0.00001468400000","NORAD_CAT_ID":"47589","REF_FRAME":"TEME","MEAN_ANOMALY":"276.3534","TLE_LINE1":"1 47589U 21009AT  22229.01667286 -.00000063  00000-0  14684-4 0  9995","PERIAPSIS":"546.108","PERIOD":"95.592","ARG_OF_PERICENTER":"83.7632","FILE":"3538809","REV_AT_EPOCH":"8475","MEAN_ELEMENT_THEORY":"SGP4","RCS_SIZE":"LARGE","RA_OF_ASC_NODE":"100.5736","DECAY_DATE":null}];
